NORAD_CAT_ID,OBJECT_NAME,OBJECT_TYPE,EPOCH,MEAN_MOTION,ECCENTRICITY,INCLINATION,RA_OF_ASC_NODE,ARG_OF_PERICENTER,MEAN_ANOMALY,BSTAR,MEAN_MOTION_DOT,MEAN_MOTION_DDOT,TLE_LINE0,TLE_LINE1,TLE_LINE2,SEMIMAJOR_AXIS,PERIOD,APOGEE,PERIGEE,DECAYED
51726.0,STARLINK-3527,PAYLOAD,2023-05-23 22:07:46,15.0883159,8.9e-05,53.2161,221.5257,101.5969,258.5123,8.5441e-05,1.072e-05,0.0,0 STARLINK-3527,1 51726U 22016N   23143.92206715  .00001072  00000-0  85441-4 0  9993,2 51726  53.2161 221.5257 0000890 101.5969 258.5123 15.08831590 69464,6917.906,95.438,540.387,539.155,0.0
51726.0,STARLINK-3527,PAYLOAD,2023-05-25 13:52:24,15.08841714,0.0001125,53.2171,214.0893,92.1124,267.9996,9.2135e-05,1.179e-05,0.0,0 STARLINK-3527,1 51726U 22016N   23145.57806418  .00001179  00000-0  92135-4 0  9998,2 51726  53.2171 214.0893 0001125  92.1124 267.9996 15.08841714 69717,6917.875,95.437,540.518,538.962,0.0
51726.0,STARLINK-3527,PAYLOAD,2023-05-26 10:32:25,15.08843293,0.0001139,53.2163,210.2239,92.0904,268.0218,3.0445e-05,1.97e-06,0.0,0 STARLINK-3527,1 51726U 22016N   23146.43918356  .00000197  00000-0  30445-4 0  9994,2 51726  53.2163 210.2239 0001139  92.0904 268.0218 15.08843293 69847,6917.87,95.437,540.523,538.947,0.0
51726.0,STARLINK-3527,PAYLOAD,2023-05-26 23:15:30,15.08839501,0.0001151,53.2162,207.8452,91.5325,268.5799,2.2673e-05,7.3e-07,0.0,0 STARLINK-3527,1 51726U 22016N   23146.96910509  .00000073  00000-0  22673-4 0  9991,2 51726  53.2162 207.8452 0001151  91.5325 268.5799 15.08839501 70983,6917.882,95.438,540.543,538.951,0.0
51726.0,STARLINK-3527,PAYLOAD,2023-05-27 13:33:59,15.08837305,0.000109,53.2159,205.1681,92.4977,267.614,-3.0871e-05,-7.79e-06,0.0,0 STARLINK-3527,1 51726U 22016N   23147.56526870 -.00000779  00000-0 -30871-4 0  9996,2 51726  53.2159 205.1681 0001090  92.4977 267.6140 15.08837305 70013,6917.889,95.438,540.508,539.0,0.0
51726.0,STARLINK-3527,PAYLOAD,2023-05-28 03:52:27,15.08840864,0.0001078,53.2154,202.492,76.1565,283.9547,2.1619e-05,5.6e-07,0.0,0 STARLINK-3527,1 51726U 22016N   23148.16142526  .00000056  00000-0  21619-4 0  9991,2 51726  53.2154 202.4920 0001078  76.1565 283.9547 15.08840864 70108,6917.878,95.438,540.488,538.997,0.0
51726.0,STARLINK-3527,PAYLOAD,2023-05-28 10:13:59,15.08842781,0.0001101,53.2156,201.3031,79.9196,280.1921,3.8003e-05,3.17e-06,0.0,0 STARLINK-3527,1 51726U 22016N   23148.42638310  .00000317  00000-0  38003-4 0  9996,2 51726  53.2156 201.3031 0001101  79.9196 280.1921 15.08842781 71206,6917.872,95.437,540.499,538.975,0.0
51726.0,STARLINK-3527,PAYLOAD,2023-05-29 10:04:46,15.0884083,0.000109,53.216,196.8429,84.5757,275.536,9.6672e-05,1.251e-05,0.0,0 STARLINK-3527,1 51726U 22016N   23149.41998106  .00001251  00000-0  96672-4 0  9992,2 51726  53.2160 196.8429 0001090  84.5757 275.5360 15.08840830 70298,6917.878,95.438,540.497,538.989,0.0
51726.0,STARLINK-3527,PAYLOAD,2023-05-29 19:37:05,15.08839318,0.0001132,53.216,195.0595,75.9099,284.2019,3.4976e-05,2.69e-06,0.0,0 STARLINK-3527,1 51726U 22016N   23149.81742404  .00000269  00000-0  34976-4 0  9991,2 51726  53.2160 195.0595 0001132  75.9099 284.2019 15.08839318 70357,6917.882,95.438,540.531,538.964,0.0
51726.0,STARLINK-3527,PAYLOAD,2023-05-30 03:34:01,15.08833678,0.0001236,53.2169,193.5722,89.9781,270.1352,-5.2361e-05,-1.121e-05,0.0,0 STARLINK-3527,1 51726U 22016N   23150.14863175 -.00001121  00000-0 -52361-4 0  9996,2 51726  53.2169 193.5722 0001236  89.9781 270.1352 15.08833678 71469,6917.9,95.438,540.62,538.91,0.0
51726.0,STARLINK-3527,PAYLOAD,2023-05-30 09:55:34,15.08832654,0.0001196,53.2168,192.3826,89.5012,270.6117,-6.1033e-05,-1.259e-05,0.0,0 STARLINK-3527,1 51726U 22016N   23150.41359344 -.00001259  00000-0 -61033-4 0  9992,2 51726  53.2168 192.3826 0001196  89.5012 270.6117 15.08832654 70442,6917.903,95.438,540.595,538.94,0.0
51726.0,STARLINK-3527,PAYLOAD,2023-05-30 19:27:53,15.08836156,0.0001206,53.2171,190.5986,90.343,269.77,-3.6546e-05,-8.69e-06,0.0,0 STARLINK-3527,1 51726U 22016N   23150.81103149 -.00000869  00000-0 -36546-4 0  9993,2 51726  53.2171 190.5986 0001206  90.3430 269.7700 15.08836156 70504,6917.892,95.438,540.591,538.923,0.0
51726.0,STARLINK-3527,PAYLOAD,2023-05-31 01:49:25,15.08838476,0.0001194,53.2168,189.4074,88.4199,271.693,1.6153e-05,-3.1e-07,0.0,0 STARLINK-3527,1 51726U 22016N   23151.07598810 -.00000031  00000-0  16153-4 0  9997,2 51726  53.2168 189.4074 0001194  88.4199 271.6930 15.08838476 71607,6917.885,95.438,540.576,538.924,0.0
51726.0,STARLINK-3527,PAYLOAD,2023-05-31 09:46:20,15.08840641,0.0001178,53.2167,187.921,86.6287,273.484,3.0271e-05,1.94e-06,0.0,0 STARLINK-3527,1 51726U 22016N   23151.40718663  .00000194  00000-0  30271-4 0  9990,2 51726  53.2167 187.9210 0001178  86.6287 273.4840 15.08840641 70595,6917.878,95.438,540.558,538.929,0.0
51726.0,STARLINK-3527,PAYLOAD,2023-05-31 19:18:39,15.08837053,0.0001147,53.2166,186.1373,83.6338,276.4785,3.3416e-05,2.44e-06,0.0,0 STARLINK-3527,1 51726U 22016N   23151.80462921  .00000244  00000-0  33416-4 0  9997,2 51726  53.2166 186.1373 0001147  83.6338 276.4785 15.08837053 70656,6917.889,95.438,540.548,538.961,0.0
51726.0,STARLINK-3527,PAYLOAD,2023-06-01 09:37:08,15.08833956,0.0001099,53.2159,183.4605,80.0327,280.0789,6.7565e-05,7.87e-06,0.0,0 STARLINK-3527,1 51726U 22016N   23152.40079222  .00000787  00000-0  67565-4 0  9996,2 51726  53.2159 183.4605 0001099  80.0327 280.0789 15.08833956 70744,6917.899,95.438,540.524,539.004,0.0
51726.0,STARLINK-3527,PAYLOAD,2023-06-02 09:27:55,15.08840241,0.0001189,53.2162,179.0004,83.0076,277.1051,2.65e-05,1.34e-06,0.0,0 STARLINK-3527,1 51726U 22016N   23153.39439109  .00000134  00000-0  26500-4 0  9999,2 51726  53.2162 179.0004 0001189  83.0076 277.1051 15.08840241 70896,6917.88,95.438,540.567,538.922,0.0
51726.0,STARLINK-3527,PAYLOAD,2023-06-02 19:00:14,15.0883972,0.0001188,53.2163,177.2165,82.4474,277.6653,2.9487e-05,1.81e-06,0.0,0 STARLINK-3527,1 51726U 22016N   23153.79183149  .00000181  00000-0  29487-4 0  9992,2 51726  53.2163 177.2165 0001188  82.4474 277.6653 15.08839720 70959,6917.881,95.438,540.568,538.924,0.0
51726.0,STARLINK-3527,PAYLOAD,2023-06-03 10:54:05,15.08839347,0.0001169,53.2158,174.2423,84.2472,275.8653,2.683e-05,1.39e-06,0.0,0 STARLINK-3527,1 51726U 22016N   23154.45423195  .00000139  00000-0  26830-4 0  9996,2 51726  53.2158 174.2423 0001169  84.2472 275.8653 15.08839347 71051,6917.882,95.438,540.556,538.939,0.0
51726.0,STARLINK-3527,PAYLOAD,2023-06-03 18:51:01,15.0883838,0.0001171,53.2159,172.7556,83.7322,276.3804,2.336e-05,8.4e-07,0.0,0 STARLINK-3527,1 51726U 22016N   23154.78543275  .00000084  00000-0  23360-4 0  9998,2 51726  53.2159 172.7556 0001171  83.7322 276.3804 15.08838380 71109,6917.885,95.438,540.56,538.94,0.0
51726.0,STARLINK-3527,PAYLOAD,2023-06-04 07:34:06,15.0883815,0.0001192,53.2162,170.3766,85.3655,274.7473,1.5772e-05,-3.7e-07,0.0,0 STARLINK-3527,1 51726U 22016N   23155.31535357 -.00000037  00000-0  15772-4 0  9997,2 51726  53.2162 170.3766 0001192  85.3655 274.7473 15.08838150 72245,6917.886,95.438,540.576,538.926,0.0
51726.0,STARLINK-3527,PAYLOAD,2023-06-04 10:44:52,15.08838016,0.0001196,53.2162,169.7819,85.0608,275.0521,1.4019e-05,-6.5e-07,0.0,0 STARLINK-3527,1 51726U 22016N   23155.44783370 -.00000065  00000-0  14019-4 0  9995,2 51726  53.2162 169.7819 0001196  85.0608 275.0521 15.08838016 71209,6917.886,95.438,540.579,538.924,0.0
51726.0,STARLINK-3527,PAYLOAD,2023-06-05 10:35:39,15.08840566,0.0001169,53.2158,165.3214,86.4532,273.6594,4.1827e-05,3.78e-06,0.0,0 STARLINK-3527,1 51726U 22016N   23156.44143069  .00000378  00000-0  41827-4 0  9994,2 51726  53.2158 165.3214 0001169  86.4532 273.6594 15.08840566 72417,6917.879,95.438,540.552,538.935,0.0
51726.0,STARLINK-3527,PAYLOAD,2023-06-05 23:18:45,15.08835025,0.0001202,53.2157,162.943,84.3182,275.7948,1.1157e-05,-1.1e-06,0.0,0 STARLINK-3527,1 51726U 22016N   23156.97135605 -.00000110  00000-0  11157-4 0  9997,2 51726  53.2157 162.9430 0001202  84.3182 275.7948 15.08835025 72493,6917.896,95.438,540.592,538.929,0.0
51726.0,STARLINK-3527,PAYLOAD,2023-06-06 07:15:40,15.08836286,0.0001161,53.2156,161.4559,83.5983,276.5141,1.1767e-05,-1.01e-06,0.0,0 STARLINK-3527,1 51726U 22016N   23157.30255594 -.00000101  00000-0  11767-4 0  9992,2 51726  53.2156 161.4559 0001161  83.5983 276.5141 15.08836286 71484,6917.892,95.438,540.56,538.954,0.0
51726.0,STARLINK-3527,PAYLOAD,2023-06-07 05:31:04,15.08839002,0.0001139,53.2155,157.2928,84.2457,275.8665,1.2305e-05,-9.2e-07,0.0,0 STARLINK-3527,1 51726U 22016N   23158.22991545 -.00000092  00000-0  12305-4 0  9995,2 51726  53.2155 157.2928 0001139  84.2457 275.8665 15.08839002 72680,6917.883,95.438,540.536,538.96,0.0
51726.0,STARLINK-3527,PAYLOAD,2023-06-07 16:38:46,15.08837922,0.0001137,53.2154,155.2114,85.4537,274.6585,1.2382e-05,-9.1e-07,0.0,0 STARLINK-3527,1 51726U 22016N   23158.69359649 -.00000091  00000-0  12382-4 0  9993,2 51726  53.2154 155.2114 0001137  85.4537 274.6585 15.08837922 71691,6917.887,95.438,540.538,538.965,0.0
51726.0,STARLINK-3527,PAYLOAD,2023-06-08 06:57:15,15.08835793,0.0001135,53.2157,152.5355,86.8906,273.2216,3.5045e-05,2.7e-06,0.0,0 STARLINK-3527,1 51726U 22016N   23159.28975879  .00000270  00000-0  35045-4 0  9997,2 51726  53.2157 152.5355 0001135  86.8906 273.2216 15.08835793 72842,6917.893,95.438,540.543,538.973,0.0
51726.0,STARLINK-3527,PAYLOAD,2023-06-09 03:37:15,15.08839657,0.0001139,53.2158,148.6697,90.3279,269.7844,3.9866e-05,3.47e-06,0.0,0 STARLINK-3527,1 51726U 22016N   23160.15087731  .00000347  00000-0  39866-4 0  9996,2 51726  53.2158 148.6697 0001139  90.3279 269.7844 15.08839657 71912,6917.881,95.438,540.534,538.958,0.0
51726.0,STARLINK-3527,PAYLOAD,2023-06-09 16:20:21,15.08837485,0.0001212,53.2162,146.2899,87.9965,272.1166,2.586e-05,1.24e-06,0.0,0 STARLINK-3527,1 51726U 22016N   23160.68079934  .00000124  00000-0  25860-4 0  9992,2 51726  53.2162 146.2899 0001212  87.9965 272.1166 15.08837485 73050,6917.888,95.438,540.592,538.915,0.0
